start=new Date('2021-11-23T00:00:00.000Z').valueOf();
sats=[{"OBJECT_NAME":"STARLINK-1693","ARG_OF_PERICENTER":"68.5269","RCS_SIZE":"LARGE","PERIOD":"95.593","REV_AT_EPOCH":"6321","TLE_LINE1":"1 46543U 20070M   21326.85842206  .00001790  00000-0  13905-3 0  9998","OBJECT_TYPE":"PAYLOAD","FILE":"3221598","CLASSIFICATION_TYPE":"U","NORAD_CAT_ID":"46543","SITE":"AFETR","PERIAPSIS":"546.236","ELEMENT_SET_NO":"999","MEAN_ELEMENT_THEORY":"SGP4","SEMIMAJOR_AXIS":"6925.371","RA_OF_ASC_NODE":"14.8828","TLE_LINE2":"2 46543  53.0557  14.8828 0001444  68.5269 291.5874 15.06392689 63216","DECAY_DATE":null,"BSTAR":"0.00013905000000","LAUNCH_DATE":"2020-10-06","EPOCH":"2021-11-22T20:36:07.665984","INCLINATION":"53.0557","APOAPSIS":"548.236","MEAN_MOTION_DDOT":"0.0000000000000","MEAN_MOTION":"15.06392689","COUNTRY_CODE":"US","EPHEMERIS_TYPE":"0","OBJECT_ID":"2020-070M","TIME_SYSTEM":"UTC","CENTER_NAME":"EARTH","ECCENTRICITY":"0.00014440","MEAN_ANOMALY":"291.5874","REF_FRAME":"TEME","MEAN_MOTION_DOT":"0.00001790","GP_ID":"190272868"},{"RCS_SIZE":"LARGE","OBJECT_NAME":"STARLINK-1694","ARG_OF_PERICENTER":"71.1835","REV_AT_EPOCH":"6336","TLE_LINE1":"1 46544U 20070N   21326.52253393  .00002102  00000-0  15993-3 0  9993","PERIOD":"95.592","FILE":"3221599","OBJECT_TYPE":"PAYLOAD","NORAD_CAT_ID":"46544","CLASSIFICATION_TYPE":"U","MEAN_ELEMENT_THEORY":"SGP4","PERIAPSIS":"546.290","ELEMENT_SET_NO":"999","SITE":"AFETR","SEMIMAJOR_AXIS":"6925.327","RA_OF_ASC_NODE":"1.3936","BSTAR":"0.00015993000000","LAUNCH_DATE":"2020-10-06","DECAY_DATE":null,"TLE_LINE2":"2 46544  53.0554   1.3936 0001303  71.1835 288.9295 15.06407049 63368","INCLINATION":"53.0554","EPOCH":"2021-11-22T12:32:26.931552","MEAN_MOTION":"15.06407049","MEAN_MOTION_DDOT":"0.0000000000000","APOAPSIS":"548.094","OBJECT_ID":"2020-070N","EPHEMERIS_TYPE":"0","COUNTRY_CODE":"US","CENTER_NAME":"EARTH","TIME_SYSTEM":"UTC","ECCENTRICITY":"0.00013030","MEAN_MOTION_DOT":"0.00002102","GP_ID":"190273380","REF_FRAME":"TEME","MEAN_ANOMALY":"288.9295"},{"SITE":"AFETR","MEAN_ELEMENT_THEORY":"SGP4","ELEMENT_SET_NO":"999","PERIAPSIS":"546.199","CLASSIFICATION_TYPE":"U","NORAD_CAT_ID":"46545","RA_OF_ASC_NODE":"15.9219","SEMIMAJOR_AXIS":"6925.338","OBJECT_NAME":"STARLINK-1696","ARG_OF_PERICENTER":"63.1192","RCS_SIZE":"LARGE","OBJECT_TYPE":"PAYLOAD","FILE":"3221599","PERIOD":"95.592","TLE_LINE1":"1 46545U 20070P   21326.62988291  .00001845  00000-0  14274-3 0  9991","REV_AT_EPOCH":"6316","TIME_SYSTEM":"UTC","CENTER_NAME":"EARTH","EPHEMERIS_TYPE":"0","COUNTRY_CODE":"US","OBJECT_ID":"2020-070P","REF_FRAME":"TEME","MEAN_ANOMALY":"296.9945","MEAN_MOTION_DOT":"0.00001845","GP_ID":"190272879","ECCENTRICITY":"0.00014500","TLE_LINE2":"2 46545  53.0555  15.9219 0001450  63.1192 296.9945 15.06403379 63166","LAUNCH_DATE":"2020-10-06","BSTAR":"0.00014274000000","DECAY_DATE":null,"MEAN_MOTION_DDOT":"0.0000000000000","APOAPSIS":"548.207","MEAN_MOTION":"15.06403379","EPOCH":"2021-11-22T15:07:01.883424","INCLINATION":"53.0555"},{"ECCENTRICITY":"0.00013610","MEAN_ANOMALY":"297.3132","REF_FRAME":"TEME","MEAN_MOTION_DOT":"0.00000047","GP_ID":"190263476","COUNTRY_CODE":"US","EPHEMERIS_TYPE":"0","OBJECT_ID":"2020-070Q","TIME_SYSTEM":"UTC","CENTER_NAME":"EARTH","EPOCH":"2021-11-22T08:23:38.994432","INCLINATION":"53.0559","APOAPSIS":"548.159","MEAN_MOTION_DDOT":"0.0000000000000","MEAN_MOTION":"15.06399165","TLE_LINE2":"2 46546  53.0559  17.1674 0001361  62.7995 297.3132 15.06399165 63112","DECAY_DATE":null,"LAUNCH_DATE":"2020-10-06","BSTAR":"0.00002201800000","SEMIMAJOR_AXIS":"6925.351","RA_OF_ASC_NODE":"17.1674","CLASSIFICATION_TYPE":"U","NORAD_CAT_ID":"46546","SITE":"AFETR","ELEMENT_SET_NO":"999","PERIAPSIS":"546.274","MEAN_ELEMENT_THEORY":"SGP4","PERIOD":"95.592","REV_AT_EPOCH":"6311","TLE_LINE1":"1 46546U 20070Q   21326.34975688  .00000047  00000-0  22018-4 0  9996","OBJECT_TYPE":"PAYLOAD","FILE":"3221278","ARG_OF_PERICENTER":"62.7995","OBJECT_NAME":"STARLINK-1697","RCS_SIZE":"LARGE"},{"ECCENTRICITY":"0.00011700","MEAN_ANOMALY":"290.5931","REF_FRAME":"TEME","GP_ID":"190272892","MEAN_MOTION_DOT":"-0.00000017","COUNTRY_CODE":"US","EPHEMERIS_TYPE":"0","OBJECT_ID":"2020-070R","TIME_SYSTEM":"UTC","CENTER_NAME":"EARTH","EPOCH":"2021-11-22T20:14:53.325600","INCLINATION":"53.0553","APOAPSIS":"548.064","MEAN_MOTION_DDOT":"0.0000000000000","MEAN_MOTION":"15.06386875","TLE_LINE2":"2 46547  53.0553  14.9555 0001170  69.5184 290.5931 15.06386875 63210","DECAY_DATE":null,"BSTAR":"0.00001776500000","LAUNCH_DATE":"2020-10-06","SEMIMAJOR_AXIS":"6925.389","RA_OF_ASC_NODE":"14.9555","CLASSIFICATION_TYPE":"U","NORAD_CAT_ID":"46547","SITE":"AFETR","ELEMENT_SET_NO":"999","PERIAPSIS":"546.444","MEAN_ELEMENT_THEORY":"SGP4","PERIOD":"95.593","TLE_LINE1":"1 46547U 20070R   21326.84367275 -.00000017  00000-0  17765-4 0  9990","REV_AT_EPOCH":"6321","OBJECT_TYPE":"PAYLOAD","FILE":"3221614","OBJECT_NAME":"STARLINK-1698","ARG_OF_PERICENTER":"69.5184","RCS_SIZE":"LARGE"},{"FILE":"3221614","OBJECT_TYPE":"PAYLOAD","TLE_LINE1":"1 46548U 20070S   21326.85472767 -.00000406  00000-0 -83415-5 0  9994","REV_AT_EPOCH":"6321","PERIOD":"95.592","RCS_SIZE":"LARGE","ARG_OF_PERICENTER":"54.2606","OBJECT_NAME":"STARLINK-1699","RA_OF_ASC_NODE":"14.9171","SEMIMAJOR_AXIS":"6925.354","PERIAPSIS":"546.027","ELEMENT_SET_NO":"999","MEAN_ELEMENT_THEORY":"SGP4","SITE":"AFETR","NORAD_CAT_ID":"46548","CLASSIFICATION_TYPE":"U","MEAN_MOTION":"15.06398378","APOAPSIS":"548.410","MEAN_MOTION_DDOT":"0.0000000000000","INCLINATION":"53.0554","EPOCH":"2021-11-22T20:30:48.470688","DECAY_DATE":null,"LAUNCH_DATE":"2020-10-06","BSTAR":"-0.00000834150000","TLE_LINE2":"2 46548  53.0554  14.9171 0001720  54.2606 305.8543 15.06398378 63217","GP_ID":"190273387","MEAN_MOTION_DOT":"-0.00000406","MEAN_ANOMALY":"305.8543","REF_FRAME":"TEME","ECCENTRICITY":"0.00017200","CENTER_NAME":"EARTH","TIME_SYSTEM":"UTC","OBJECT_ID":"2020-070S","COUNTRY_CODE":"US","EPHEMERIS_TYPE":"0"},{"OBJECT_ID":"2020-070T","EPHEMERIS_TYPE":"0","COUNTRY_CODE":"US","CENTER_NAME":"EARTH","TIME_SYSTEM":"UTC","ECCENTRICITY":"0.00010310","MEAN_MOTION_DOT":"0.00001075","GP_ID":"190264721","MEAN_ANOMALY":"303.1809","REF_FRAME":"TEME","BSTAR":"0.00009106000000","LAUNCH_DATE":"2020-10-06","DECAY_DATE":null,"TLE_LINE2":"2 46549  53.0548  18.0545 0001031  56.9279 303.1809 15.06404451 63082","INCLINATION":"53.0548","EPOCH":"2021-11-22T03:42:20.207520","MEAN_MOTION":"15.06404451","MEAN_MOTION_DDOT":"0.0000000000000","APOAPSIS":"547.914","NORAD_CAT_ID":"46549","CLASSIFICATION_TYPE":"U","MEAN_ELEMENT_THEORY":"SGP4","ELEMENT_SET_NO":"999","PERIAPSIS":"546.486","SITE":"AFETR","RA_OF_ASC_NODE":"18.0545","SEMIMAJOR_AXIS":"6925.335","RCS_SIZE":"LARGE","ARG_OF_PERICENTER":"56.9279","OBJECT_NAME":"STARLINK-1700","REV_AT_EPOCH":"6308","TLE_LINE1":"1 46549U 20070T   21326.15440055  .00001075  00000-0  91060-4 0  9998","PERIOD":"95.592","FILE":"3221278","OBJECT_TYPE":"PAYLOAD"},{"TLE_LINE2":"2 46550  53.0561  14.8392 0001521  76.3750 283.7408 15.06399215 63211","LAUNCH_DATE":"2020-10-06","BSTAR":"-0.00000987490000","DECAY_DATE":null,"MEAN_MOTION_DDOT":"0.0000000000000","APOAPSIS":"548.269","MEAN_MOTION":"15.06399215","EPOCH":"2021-11-22T20:52:02.227008","INCLINATION":"53.0561","TIME_SYSTEM":"UTC","CENTER_NAME":"EARTH","EPHEMERIS_TYPE":"0","COUNTRY_CODE":"US","OBJECT_ID":"2020-070U","MEAN_ANOMALY":"283.7408","REF_FRAME":"TEME","MEAN_MOTION_DOT":"-0.00000429","GP_ID":"190273394","ECCENTRICITY":"0.00015210","OBJECT_NAME":"STARLINK-1701","ARG_OF_PERICENTER":"76.3750","RCS_SIZE":"LARGE","OBJECT_TYPE":"PAYLOAD","FILE":"3221614","PERIOD":"95.592","TLE_LINE1":"1 46550U 20070U   21326.86947022 -.00000429  00000-0 -98749-5 0  9990","REV_AT_EPOCH":"6321","SITE":"AFETR","MEAN_ELEMENT_THEORY":"SGP4","PERIAPSIS":"546.163","ELEMENT_SET_NO":"999","CLASSIFICATION_TYPE":"U","NORAD_CAT_ID":"46550","SEMIMAJOR_AXIS":"6925.351","RA_OF_ASC_NODE":"14.8392"},{"CLASSIFICATION_TYPE":"U","NORAD_CAT_ID":"46552","SITE":"AFETR","MEAN_ELEMENT_THEORY":"SGP4","ELEMENT_SET_NO":"999","PERIAPSIS":"546.135","SEMIMAJOR_AXIS":"6925.314","RA_OF_ASC_NODE":"1.2142","OBJECT_NAME":"STARLINK-1649","ARG_OF_PERICENTER":"68.8697","RCS_SIZE":"LARGE","PERIOD":"95.591","TLE_LINE1":"1 46552U 20070W   21326.56307931  .00004367  00000-0  31181-3 0  9996","REV_AT_EPOCH":"6330","OBJECT_TYPE":"PAYLOAD","FILE":"3221611","EPHEMERIS_TYPE":"0","COUNTRY_CODE":"US","OBJECT_ID":"2020-070W","TIME_SYSTEM":"UTC","CENTER_NAME":"EARTH","ECCENTRICITY":"0.00015070","REF_FRAME":"TEME","MEAN_ANOMALY":"291.2453","GP_ID":"190272732","MEAN_MOTION_DOT":"0.00004367","TLE_LINE2":"2 46552  53.0539   1.2142 0001507  68.8697 291.2453 15.06411430 63309","BSTAR":"0.00031181000000","LAUNCH_DATE":"2020-10-06","DECAY_DATE":null,"EPOCH":"2021-11-22T13:30:50.052384","INCLINATION":"53.0539","MEAN_MOTION_DDOT":"0.0000000000000","APOAPSIS":"548.222","MEAN_MOTION":"15.06411430"},{"ECCENTRICITY":"0.00015240","GP_ID":"190264979","MEAN_MOTION_DOT":"0.00003754","REF_FRAME":"TEME","MEAN_ANOMALY":"298.1105","OBJECT_ID":"2020-070X","COUNTRY_CODE":"US","EPHEMERIS_TYPE":"0","CENTER_NAME":"EARTH","TIME_SYSTEM":"UTC","INCLINATION":"53.0545","EPOCH":"2021-11-22T11:00:12.540672","MEAN_MOTION":"15.06405090","APOAPSIS":"548.253","MEAN_MOTION_DDOT":"0.0000000000000","DECAY_DATE":null,"BSTAR":"0.00027074000000","LAUNCH_DATE":"2020-10-06","TLE_LINE2":"2 46553  53.0545 346.6883 0001524  62.0039 298.1105 15.06405090 63552","SEMIMAJOR_AXIS":"6925.333","RA_OF_ASC_NODE":"346.6883","NORAD_CAT_ID":"46553","CLASSIFICATION_TYPE":"U","ELEMENT_SET_NO":"999","PERIAPSIS":"546.143","MEAN_ELEMENT_THEORY":"SGP4","SITE":"AFETR","REV_AT_EPOCH":"6355","TLE_LINE1":"1 46553U 20070X   21326.45847848  .00003754  00000-0  27074-3 0  9996","PERIOD":"95.592","FILE":"3221278","OBJECT_TYPE":"PAYLOAD","RCS_SIZE":"LARGE","ARG_OF_PERICENTER":"62.0039","OBJECT_NAME":"STARLINK-1664"}];
